satname,norad_id,inclination_deg,eccentricity,mean_motion_rev_per_day,perigee_km,apogee_km,l1,l2
STARLINK-1527,46048,53.1646,0.0005232,15.30230387,471.53871448252266,478.70996714955163,1 46048U 20055X   26092.76192418 -.00006715  00000+0 -21442-3 0  9997,2 46048  53.1646   2.1264 0005232  83.3762 276.7834 15.30230387312730
STARLINK-1540,46051,53.1608,0.0002459,15.30195907,473.54204812778516,476.9125326858075,1 46051U 20055AA  26092.71976549  .00005581  00000+0  20047-3 0  9999,2 46051  53.1608   2.2270 0002459  80.2051 279.9227 15.30195907312767
STARLINK-1541,46052,53.1593,0.0001038,15.3020572,474.48661441153945,475.9093667555853,1 46052U 20055AB  26092.44798926  .00011681  00000+0  40582-3 0  9995,2 46052  53.1593   3.5307 0001038  88.7810 271.3310 15.30205720312689
STARLINK-1543,46053,53.1607,0.0001252,15.30203378,474.3469449224531,476.06302175508154,1 46053U 20055AC  26092.45431054  .00006795  00000+0  24133-3 0  9997,2 46053  53.1607   3.5245 0001252  98.9234 261.1908 15.30203378312719
STARLINK-1548,46054,53.1618,0.0001287,15.30199213,474.3353925467145,476.0994459742333,1 46054U 20055AD  26092.13510415 -.00000363  00000+0 -14213-6 0  9990,2 46054  53.1618   5.0103 0001287 102.6785 257.4359 15.30199213312668
STARLINK-1554,46055,53.1617,0.0001643,15.30194175,474.10645327194743,476.3584704771192,1 46055U 20055AE  26092.45960586  .00003328  00000+0  12445-3 0  9998,2 46055  53.1617   3.6268 0001643  84.5205 275.5983 15.30194175312717
STARLINK-1564,46058,53.1613,0.0001483,15.30195257,474.21287698688593,476.2455854110585,1 46058U 20055AH  26092.45755282  .00004431  00000+0  16166-3 0  9996,2 46058  53.1613   3.9684 0001483  89.1636 270.9534 15.30195257312704
STARLINK-1570,46059,53.1636,0.0001477,15.30195754,474.21550526612646,476.2399892124613,1 46059U 20055AJ  26092.74823023  .00005901  00000+0  21125-3 0  9992,2 46059  53.1636   2.1646 0001477  72.2462 287.8700 15.30195754312717
STARLINK-1572,46060,53.1594,0.0001001,15.3020056,474.52737698599867,475.89941773555165,1 46060U 20055AK  26092.76511564  .00008301  00000+0  29208-3 0  9997,2 46060  53.1594   2.2904 0001001  78.9809 281.1304 15.30200560312721
STARLINK-1573,46061,53.163,0.0001316,15.30202252,474.30644511404716,476.11024560894657,1 46061U 20055AL  26092.47116214  .00013800  00000+0  47717-3 0  9994,2 46061  53.1630   3.4023 0001316  71.3530 288.7614 15.30202252312711
STARLINK-1577,46063,53.1613,0.0001077,15.30202001,474.4709894261068,475.9472001749273,1 46063U 20055AN  26092.75875200  .00007521  00000+0  26576-3 0  9997,2 46063  53.1613   2.0377 0001077  83.3671 276.7452 15.30202001312757
STARLINK-1583,46064,53.1621,0.0001378,15.30199941,474.27085364325376,476.1596375221361,1 46064U 20055AP  26092.46800487  .00013186  00000+0  45653-3 0  9992,2 46064  53.1621   3.4202 0001378  73.6429 286.4723 15.30199941312708
STARLINK-1525,46066,53.0553,0.0001686,15.31246862,470.9361606650609,473.2460575834575,1 46066U 20055AR  26092.86832006  .00136038  00000+0  43772-2 0  9991,2 46066  53.0553 344.7105 0001686 176.2192 183.8821 15.31246862312991
STARLINK-1536,46070,53.0559,0.0001508,15.10218773,534.4896567856313,536.574819427844,1 46070U 20055AV  26092.91668981 -.00012726  00000+0 -75348-3 0  9995,2 46070  53.0559 347.7262 0001508  94.0710  65.3577 15.10218773  5780
STARLINK-1542,46073,53.0552,0.0001298,15.06390796,546.3408531119285,548.138680920646,1 46073U 20055AY  26092.69397956  .00007130  00000+0  49721-3 0  9991,2 46073  53.0552 348.8599 0001298  85.9920 274.1217 15.06390796312928
STARLINK-1549,46074,53.0532,0.0001371,15.11816866,529.7120384027121,531.6064303301746,1 46074U 20055AZ  26092.91668981  .02018695  00000+0  10666+0 0  9998,2 46074  53.0532 347.7339 0001371  94.2923 180.1675 15.11816866  5734
STARLINK-1551,46075,53.0743,0.0001203,15.11472108,530.8785107015765,532.5410198333002,1 46075U 20055BA  26092.91668981  .00932523  00000+0  50898-1 0  9995,2 46075  53.0743 347.8150 0001203  97.6557 356.2419 15.11472108  5789
STARLINK-1552,46076,53.0749,0.0002121,15.11538445,530.042059531218,532.9731307684806,1 46076U 20055BB  26092.83335647  .01500790  00000+0  79701-1 0  9999,2 46076  53.0749 348.1859 0002121 102.9027 119.9143 15.11538445  5660
STARLINK-1559,46077,53.0258,0.0003749,15.31970051,467.36776327054395,472.502447735249,1 46077U 20055BC  26092.06515954  .00063664  00000+0  20282-2 0  9990,2 46077  53.0258 324.9418 0003749 129.1609 230.9724 15.31970051313164
STARLINK-1566,46079,53.0755,0.0001775,15.11859469,529.3031558664024,531.7557324540794,1 46079U 20055BE  26092.83335647  .01467872  00000+0  77424-1 0  9995,2 46079  53.0755 348.1823 0001775  87.0215  39.0547 15.11859469  5771
STARLINK-1568,46080,53.0602,0.0004937,15.48445561,417.91588237397536,424.62961956208255,1 46080U 20055BF  26092.77765498  .00049020  00000+0  91061-3 0  9996,2 46080  53.0602 277.8574 0004937 201.2666 158.8137 15.48445561313926
STARLINK-1578,46082,53.0529,0.0001426,15.10230615,534.5102130663163,536.4819812256228,1 46082U 20055BH  26092.83335647 -.00018971  00000+0 -11325-2 0  9991,2 46082  53.0529 348.1094 0001426  93.8320 347.2463 15.10230615  5674
STARLINK-1579,46083,53.0724,0.0002269,15.11637734,529.6372977067213,532.7727571187606,1 46083U 20055BJ  26092.83335647  .00053545  00000+0  31081-2 0  9997,2 46083  53.0724 348.1861 0002269  97.2528 105.3554 15.11637734  5766
STARLINK-1585,46117,53.0303,0.0006849,16.06054747,253.14343067143545,262.2331841775458,1 46117U 20057A   26092.92617948  .01238049  90419-3  16627-2 0  9995,2 46117  53.0303 123.1439 0006849  32.5274 327.6178 16.06054747310905
STARLINK-1593,46119,53.0385,0.0006017,15.84621065,313.3632383353315,321.4206378594381,1 46119U 20057C   26092.83335647  .00305278  00000+0  12541-2 0  9992,2 46119  53.0385 149.3750 0006017  16.0338 255.6187 15.84621065  5974
STARLINK-1621,46127,53.0395,0.0007813,15.88780774,300.478031443743,310.9221953171118,1 46127U 20057L   26092.83335647  .00407032  00000+0  13473-2 0  9997,2 46127  53.0395 122.0690 0007813  15.6188 150.3585 15.88780774  5866
STARLINK-1622,46128,53.021,0.0002453,15.68703547,360.9548685491036,364.2618782292875,1 46128U 20057M   26092.75137786  .00115017  00000+0  98074-3 0  9993,2 46128  53.0210 105.7886 0002453 346.3074  13.7874 15.68703547311135
STARLINK-1623,46129,53.0469,0.000379,15.57761386,391.57078902981357,396.70417308645483,1 46129U 20057N   26092.83335647  .00082170  00000+0  10818-2 0  9991,2 46129  53.0469 139.2269 0003790 318.9314 221.0390 15.57761386  5798
